$$SOE
2460721.500000000, A.D. 2025-Feb-15 00:00:00.0000, 2.142805952797574E+08, 3.471477367661720E+08, -7.702413232057372E+07,
2460728.500000000, A.D. 2025-Feb-22 00:00:00.0000, 2.051292885374841E+08, 3.536286670906261E+08, -7.742664551065958E+07,
2460735.500000000, A.D. 2025-Mar-01 00:00:00.0000, 1.958396827513220E+08, 3.598714629975057E+08, -7.777693978343064E+07,
2460742.500000000, A.D. 2025-Mar-08 00:00:00.0000, 1.864189304431311E+08, 3.658735609272956E+08, -7.807513133995546E+07,
2460749.500000000, A.D. 2025-Mar-15 00:00:00.0000, 1.768741971095189E+08, 3.716326339077266E+08, -7.832137800974406E+07,
2460756.500000000, A.D. 2025-Mar-22 00:00:00.0000, 1.672126500937541E+08, 3.771465890074757E+08, -7.851587779885902E+07,
2460763.500000000, A.D. 2025-Mar-29 00:00:00.0000, 1.574414491534022E+08, 3.824135621893556E+08, -7.865886771295218E+07,
2460770.500000000, A.D. 2025-Apr-05 00:00:00.0000, 1.475677390624171E+08, 3.874319137293478E+08, -7.875062263546395E+07,
2460777.500000000, A.D. 2025-Apr-12 00:00:00.0000, 1.375986423305641E+08, 3.922002243303082E+08, -7.879145408093494E+07,
2460784.500000000, A.D. 2025-Apr-19 00:00:00.0000, 1.275412518588355E+08, 3.967172910750206E+08, -7.878170888324808E+07,
2460791.500000000, A.D. 2025-Apr-26 00:00:00.0000, 1.174026238069994E+08, 4.009821230420653E+08, -7.872176786539969E+07,
2460798.500000000, A.D. 2025-May-03 00:00:00.0000, 1.071897707898801E+08, 4.049939366297060E+08, -7.861204450454016E+07,
2460805.500000000, A.D. 2025-May-10 00:00:00.0000, 9.690965543218622E+07, 4.087521506217465E+08, -7.845298359875992E+07,
2460812.500000000, A.D. 2025-May-17 00:00:00.0000, 8.656918431816877E+07, 4.122563809788191E+08, -7.824505994656627E+07,
2460819.500000000, A.D. 2025-May-24 00:00:00.0000, 7.617520250794582E+07, 4.155064353243917E+08, -7.798877706336440E+07,
2460826.500000000, A.D. 2025-May-31 00:00:00.0000, 6.573448903475708E+07, 4.185023074599196E+08, -7.768466595165090E+07,
2460833.500000000, A.D. 2025-Jun-07 00:00:00.0000, 5.525375297836581E+07, 4.212441731369779E+08, -7.733328379357708E+07,
2460840.500000000, A.D. 2025-Jun-14 00:00:00.0000, 4.473962774595940E+07, 4.237323864389127E+08, -7.693521240628082E+07,
2460847.500000000, A.D. 2025-Jun-21 00:00:00.0000, 3.419866476889003E+07, 4.259674735175917E+08, -7.649105684026596E+07,
2460854.500000000, A.D. 2025-Jun-28 00:00:00.0000, 2.363732973393214E+07, 4.279501254714082E+08, -7.600144426663372E+07,
2460861.500000000, A.D. 2025-Jul-05 00:00:00.0000, 1.306199982561691E+07, 4.296811925407394E+08, -7.546702284101868E+07,
2460868.500000000, A.D. 2025-Jul-12 00:00:00.0000, 2.478960780319298E+06, 4.311616788310752E+08, -7.488846050242528E+07,
2460875.500000000, A.D. 2025-Jul-19 00:00:00.0000, -8.105596068392606E+06, 4.323927370037284E+08, -7.426644377272761E+07,
2460882.500000000, A.D. 2025-Jul-26 00:00:00.0000, -1.868557655369927E+07, 4.333756628922116E+08, -7.360167658213609E+07,
2460889.500000000, A.D. 2025-Aug-02 00:00:00.0000, -2.925498619410570E+07, 4.341118900797398E+08, -7.289487912614821E+07,
2460896.500000000, A.D. 2025-Aug-09 00:00:00.0000, -3.980793245421319E+07, 4.346029844361191E+08, -7.214678675841476E+07,
2460903.500000000, A.D. 2025-Aug-16 00:00:00.0000, -5.033862668191355E+07, 4.348506385627686E+08, -7.135814893264246E+07,
2460910.500000000, A.D. 2025-Aug-23 00:00:00.0000, -6.084138544068001E+07, 4.348566661734630E+08, -7.052972821974763E+07,
2460917.500000000, A.D. 2025-Aug-30 00:00:00.0000, -7.131063091932787E+07, 4.346229971354047E+08, -6.966229937278385E+07,
2460924.500000000, A.D. 2025-Sep-06 00:00:00.0000, -8.174089184756944E+07, 4.341516741809980E+08, -6.875664822858298E+07,
2460931.500000000, A.D. 2025-Sep-13 00:00:00.0000, -9.212680659638755E+07, 4.334448488135852E+08, -6.781357049529569E+07,
2460938.500000000, A.D. 2025-Sep-20 00:00:00.0000, -1.024631252009783E+08, 4.325047747648175E+08, -6.683387085856900E+07,
2460945.500000000, A.D. 2025-Sep-27 00:00:00.0000, -1.127447092612636E+08, 4.313338021206415E+08, -6.581836224879368E+07,
2460952.500000000, A.D. 2025-Oct-04 00:00:00.0000, -1.229665317483768E+08, 4.299343726611098E+08, -6.476786504059443E+07,
2460959.500000000, A.D. 2025-Oct-11 00:00:00.0000, -1.331236771024885E+08, 4.283090154754282E+08, -6.368320622726604E+07,
2460966.500000000, A.D. 2025-Oct-18 00:00:00.0000, -1.432113413500372E+08, 4.264603425827770E+08, -6.256521861891225E+07,
2460973.500000000, A.D. 2025-Oct-25 00:00:00.0000, -1.532248321113855E+08, 4.243910445749295E+08, -6.141474007666637E+07,
2460980.500000000, A.D. 2025-Nov-01 00:00:00.0000, -1.631595684689462E+08, 4.221038863000599E+08, -6.023261278555937E+07,
2460987.500000000, A.D. 2025-Nov-08 00:00:00.0000, -1.730110806702408E+08, 4.196017025587755E+08, -5.901968257162136E+07,
2460994.500000000, A.D. 2025-Nov-15 00:00:00.0000, -1.827750095270101E+08, 4.168873937550507E+08, -5.777679828117348E+07,
2461001.500000000, A.D. 2025-Nov-22 00:00:00.0000, -1.924471051168633E+08, 4.139639217226050E+08, -5.650481124078083E+07,
2461008.500000000, A.D. 2025-Nov-29 00:00:00.0000, -2.020232249502733E+08, 4.108343068622007E+08, -5.520457469076306E+07,
2461015.500000000, A.D. 2025-Dec-06 00:00:00.0000, -2.114993338893180E+08, 4.075016264551396E+08, -5.387694299450262E+07,
2461022.500000000, A.D. 2025-Dec-13 00:00:00.0000, -2.208715053911374E+08, 4.039690107819171E+08, -5.252277093803923E+07,
2461029.500000000, A.D. 2025-Dec-20 00:00:00.0000, -2.301359205908461E+08, 4.002396380658615E+08, -5.114291335538054E+07,
2461036.500000000, A.D. 2025-Dec-27 00:00:00.0000, -2.392888663074661E+08, 3.963167308328678E+08, -4.973822476905189E+07,
2461043.500000000, A.D. 2026-Jan-03 00:00:00.0000, -2.483267334393812E+08, 3.922035530724099E+08, -4.830955896214685E+07,
2461050.500000000, A.D. 2026-Jan-10 00:00:00.0000, -2.572460156455483E+08, 3.879034075197896E+08, -4.685776854650758E+07,
2461057.500000000, A.D. 2026-Jan-17 00:00:00.0000, -2.660433080859544E+08, 3.834196329662414E+08, -4.538370455476576E+07,
2461064.500000000, A.D. 2026-Jan-24 00:00:00.0000, -2.747153061493082E+08, 3.787556016176094E+08, -4.388821606046051E+07,
2461071.500000000, A.D. 2026-Jan-31 00:00:00.0000, -2.832588041502399E+08, 3.739147164920115E+08, -4.237214982792625E+07,
2461078.500000000, A.D. 2026-Feb-07 00:00:00.0000, -2.916706939401467E+08, 3.689004087967147E+08, -4.083635000123762E+07,
2461085.500000000, A.D. 2026-Feb-14 00:00:00.0000, -2.999479631843024E+08, 3.637161352663784E+08, -3.928165785570891E+07,
2461092.500000000, A.D. 2026-Feb-21 00:00:00.0000, -3.080876929235112E+08, 3.583653760371562E+08, -3.770891159947556E+07,
2461099.500000000, A.D. 2026-Feb-28 00:00:00.0000, -3.160870555114560E+08, 3.528516342082120E+08, -3.611894603078939E+07,
2461106.500000000, A.D. 2026-Mar-07 00:00:00.0000, -3.239433149919251E+08, 3.471784351399668E+08, -3.451259202117671E+07,
2461113.500000000, A.D. 2026-Mar-14 00:00:00.0000, -3.316538271430393E+08, 3.413493231541444E+08, -3.289067626863939E+07,
2461120.500000000, A.D. 2026-Mar-21 00:00:00.0000, -3.392160374090028E+08, 3.353678585290033E+08, -3.125402124622664E+07,
2461127.500000000, A.D. 2026-Mar-28 00:00:00.0000, -3.466274787341940E+08, 3.292376158158503E+08, -2.960344507695445E+07,
2461134.500000000, A.D. 2026-Apr-04 00:00:00.0000, -3.538857699071811E+08, 3.229621825095955E+08, -2.793976135791561E+07,
2461141.500000000, A.D. 2026-Apr-11 00:00:00.0000, -3.609886141434522E+08, 3.165451577106478E+08, -2.626377898705433E+07,
2461148.500000000, A.D. 2026-Apr-18 00:00:00.0000, -3.679337977502654E+08, 3.099901507682160E+08, -2.457630200666785E+07,
2461155.500000000, A.D. 2026-Apr-25 00:00:00.0000, -3.747191888304542E+08, 3.033007799166420E+08, -2.287812946562688E+07,
2461162.500000000, A.D. 2026-May-02 00:00:00.0000, -3.813427359968833E+08, 2.964806708723470E+08, -2.117005530460811E+07,
2461169.500000000, A.D. 2026-May-09 00:00:00.0000, -3.878024669748277E+08, 2.895334553225684E+08, -1.945286828026487E+07,
2461176.500000000, A.D. 2026-May-16 00:00:00.0000, -3.940964867154915E+08, 2.824627694415787E+08, -1.772735195077112E+07,
2461183.500000000, A.D. 2026-May-23 00:00:00.0000, -4.002229749695060E+08, 2.752722534536400E+08, -1.599428464301883E+07,
2461190.500000000, A.D. 2026-May-30 00:00:00.0000, -4.061801854000144E+08, 2.679655525588921E+08, -1.425443918396764E+07,
2461197.500000000, A.D. 2026-Jun-06 00:00:00.0000, -4.119664465539415E+08, 2.605463159458075E+08, -1.250858263398935E+07,
2461204.500000000, A.D. 2026-Jun-13 00:00:00.0000, -4.175801610253570E+08, 2.530181940852601E+08, -1.075747634142481E+07,
2461211.500000000, A.D. 2026-Jun-20 00:00:00.0000, -4.230198033136055E+08, 2.453848372273092E+08, -9.001876032779738E+06,
2461218.500000000, A.D. 2026-Jun-27 00:00:00.0000, -4.282839180787200E+08, 2.376498947583441E+08, -7.242531810638577E+06,
2461225.500000000, A.D. 2026-Jul-04 00:00:00.0000, -4.333711187971163E+08, 2.298170146430699E+08, -5.480188122646421E+06,
2461232.500000000, A.D. 2026-Jul-11 00:00:00.0000, -4.382800865647294E+08, 2.218898428183812E+08, -3.715583735403776E+06,
2461239.500000000, A.D. 2026-Jul-18 00:00:00.0000, -4.430095689552671E+08, 2.138720225630827E+08, -1.949451719346285E+06,
2461246.500000000, A.D. 2026-Jul-25 00:00:00.0000, -4.475583789093776E+08, 2.057671938439894E+08, -1.825194462709576E+05,
2461253.500000000, A.D. 2026-Aug-01 00:00:00.0000, -4.519253936068642E+08, 1.975789925879309E+08, 1.584491392508253E+06,
2461260.500000000, A.D. 2026-Aug-08 00:00:00.0000, -4.561095531072975E+08, 1.893110498414083E+08, 3.350864725107178E+06,
2461267.500000000, A.D. 2026-Aug-15 00:00:00.0000, -4.601098583441554E+08, 1.809669912658911E+08, 5.115889994243957E+06,
2461274.500000000, A.D. 2026-Aug-22 00:00:00.0000, -4.639253692339709E+08, 1.725504381875395E+08, 6.878862178612195E+06,
2461281.500000000, A.D. 2026-Aug-29 00:00:00.0000, -4.675552051910327E+08, 1.640650088265691E+08, 8.639082038513474E+06,
2461288.500000000, A.D. 2026-Sep-05 00:00:00.0000, -4.709985459151621E+08, 1.555143168372969E+08, 1.039585615603440E+07,
$$EOE